{
  "norad_id": 51777,
  "name": "STARLINK-3625",
  "history": [
    {
      "epoch": "2026-03-28T17:44:45.771360",
      "apogee_km": 540.7053449062514,
      "perigee_km": 538.7792689496182,
      "latitude_deg": 14.381779795928772,
      "longitude_deg": 148.68419039994478,
      "semi_major_axis_km": 6917.8793069279345,
      "eccentricity": 0.00013921,
      "inclination_deg": 53.217,
      "raan_deg": 253.5739,
      "arg_perigee_deg": 91.3484,
      "mean_anomaly_deg": 268.7668,
      "mean_motion_rev_day": 15.08840354
    }
  ]
}